[{"OBJECT_NAME":"STARLINK-31132","OBJECT_ID":"2024-011N","EPOCH":"2026-03-09T20:23:49.567200","MEAN_MOTION":15.30186472,"ECCENTRICITY":0.00011845,"INCLINATION":53.1604,"RA_OF_ASC_NODE":282.7891,"ARG_OF_PERICENTER":105.6376,"MEAN_ANOMALY":254.4755,"EPHEMERIS_TYPE":0,"CLASSIFICATION_TYPE":"U","NORAD_CAT_ID":58777,"ELEMENT_SET_NO":999,"REV_AT_EPOCH":12158,"BSTAR":2.538752e-6,"MEAN_MOTION_DOT":-2.84e-6,"MEAN_MOTION_DDOT":0},{"OBJECT_NAME":"FENGYUN 1C DEB","OBJECT_ID":"1999-025BZU","EPOCH":"2026-03-09T17:19:51.665664","MEAN_MOTION":15.28412118,"ECCENTRICITY":0.00188802,"INCLINATION":98.9598,"RA_OF_ASC_NODE":354.2029,"ARG_OF_PERICENTER":82.3682,"MEAN_ANOMALY":277.9697,"EPHEMERIS_TYPE":0,"CLASSIFICATION_TYPE":"U","NORAD_CAT_ID":31614,"ELEMENT_SET_NO":999,"REV_AT_EPOCH":97742,"BSTAR":0.011500831,"MEAN_MOTION_DOT":0.0033373,"MEAN_MOTION_DDOT":0}]
